start=new Date('2022-06-18T00:00:00.000Z').valueOf();
sats=[{"TLE_LINE1":"1 46756U 20074T   22166.80869755  .00034234  00000-0  23097-2 0  9995","NORAD_CAT_ID":"46756","BSTAR":"0.00230970000000","RCS_SIZE":"LARGE","OBJECT_TYPE":"PAYLOAD","CLASSIFICATION_TYPE":"U","MEAN_ELEMENT_THEORY":"SGP4","MEAN_MOTION_DDOT":"0.0000000000000","SITE":"AFETR","GP_ID":"206214094","APOAPSIS":"548.246","OBJECT_NAME":"STARLINK-1925","CENTER_NAME":"EARTH","OBJECT_ID":"2020-074T","PERIAPSIS":"546.542","MEAN_MOTION":"15.06341079","MEAN_MOTION_DOT":"0.00034234","DECAY_DATE":null,"EPHEMERIS_TYPE":"0","REV_AT_EPOCH":"9120","MEAN_ANOMALY":"312.9706","REF_FRAME":"TEME","SEMIMAJOR_AXIS":"6925.529","EPOCH":"2022-06-15T19:24:31.468320","COUNTRY_CODE":"US","ELEMENT_SET_NO":"999","RA_OF_ASC_NODE":"325.2263","TLE_LINE2":"2 46756  53.0544 325.2263 0001230  47.1387 312.9706 15.06341079 91206","ECCENTRICITY":"0.00012300","PERIOD":"95.596","ARG_OF_PERICENTER":"47.1387","TIME_SYSTEM":"UTC","FILE":"3496916","INCLINATION":"53.0544","LAUNCH_DATE":"2020-10-24"},{"FILE":"3496999","INCLINATION":"53.0539","LAUNCH_DATE":"2020-10-24","EPOCH":"2022-06-15T13:23:31.995744","COUNTRY_CODE":"US","ELEMENT_SET_NO":"999","RA_OF_ASC_NODE":"326.1970","PERIOD":"95.593","TLE_LINE2":"2 46757  53.0539 326.1970 0001518  73.6854 286.4302 15.06387565 91148","ARG_OF_PERICENTER":"73.6854","ECCENTRICITY":"0.00015180","TIME_SYSTEM":"UTC","MEAN_MOTION":"15.06387565","PERIAPSIS":"546.200","MEAN_MOTION_DOT":"-0.00002261","EPHEMERIS_TYPE":"0","DECAY_DATE":null,"MEAN_ANOMALY":"286.4302","REV_AT_EPOCH":"9114","REF_FRAME":"TEME","SEMIMAJOR_AXIS":"6925.387","CENTER_NAME":"EARTH","OBJECT_ID":"2020-074U","SITE":"AFETR","GP_ID":"206236053","APOAPSIS":"548.303","OBJECT_NAME":"STARLINK-1926","CLASSIFICATION_TYPE":"U","OBJECT_TYPE":"PAYLOAD","MEAN_ELEMENT_THEORY":"SGP4","MEAN_MOTION_DDOT":"0.0000000000000","TLE_LINE1":"1 46757U 20074U   22166.55800921 -.00002261  00000-0 -13296-3 0  9996","NORAD_CAT_ID":"46757","BSTAR":"-0.00013296000000","RCS_SIZE":"LARGE"},{"ECCENTRICITY":"0.00017110","TLE_LINE2":"2 46758  53.0544 325.0384 0001711  46.4323 313.6808 15.06399976 91183","PERIOD":"95.592","ARG_OF_PERICENTER":"46.4323","TIME_SYSTEM":"UTC","EPOCH":"2022-06-15T18:15:24.361632","COUNTRY_CODE":"US","ELEMENT_SET_NO":"999","RA_OF_ASC_NODE":"325.0384","FILE":"3496999","INCLINATION":"53.0544","LAUNCH_DATE":"2020-10-24","CENTER_NAME":"EARTH","OBJECT_ID":"2020-074V","REF_FRAME":"TEME","SEMIMAJOR_AXIS":"6925.349","MEAN_MOTION_DOT":"0.00000318","PERIAPSIS":"546.029","MEAN_MOTION":"15.06399976","DECAY_DATE":null,"EPHEMERIS_TYPE":"0","REV_AT_EPOCH":"9118","MEAN_ANOMALY":"313.6808","MEAN_ELEMENT_THEORY":"SGP4","MEAN_MOTION_DDOT":"0.0000000000000","OBJECT_TYPE":"PAYLOAD","CLASSIFICATION_TYPE":"U","OBJECT_NAME":"STARLINK-1928","SITE":"AFETR","GP_ID":"206236303","APOAPSIS":"548.399","BSTAR":"0.00004022400000","RCS_SIZE":"LARGE","TLE_LINE1":"1 46758U 20074V   22166.76069863  .00000318  00000-0  40224-4 0  9993","NORAD_CAT_ID":"46758"},{"TLE_LINE1":"1 46759U 20074W   22166.75609216  .00000139  00000-0  28230-4 0  9999","NORAD_CAT_ID":"46759","RCS_SIZE":"LARGE","BSTAR":"0.00002823000000","APOAPSIS":"548.034","SITE":"AFETR","GP_ID":"206237554","OBJECT_NAME":"STARLINK-1833","CLASSIFICATION_TYPE":"U","OBJECT_TYPE":"PAYLOAD","MEAN_ELEMENT_THEORY":"SGP4","MEAN_MOTION_DDOT":"0.0000000000000","REV_AT_EPOCH":"9103","MEAN_ANOMALY":"293.8834","PERIAPSIS":"546.402","MEAN_MOTION":"15.06398615","MEAN_MOTION_DOT":"0.00000139","DECAY_DATE":null,"EPHEMERIS_TYPE":"0","SEMIMAJOR_AXIS":"6925.353","REF_FRAME":"TEME","OBJECT_ID":"2020-074W","CENTER_NAME":"EARTH","LAUNCH_DATE":"2020-10-24","FILE":"3496999","INCLINATION":"53.0555","RA_OF_ASC_NODE":"335.0715","COUNTRY_CODE":"US","EPOCH":"2022-06-15T18:08:46.362624","ELEMENT_SET_NO":"999","PERIOD":"95.592","TLE_LINE2":"2 46759  53.0555 335.0715 0001178  66.2279 293.8834 15.06398615 91033","ECCENTRICITY":"0.00011780","ARG_OF_PERICENTER":"66.2279","TIME_SYSTEM":"UTC"},{"BSTAR":"0.00006119300000","RCS_SIZE":"LARGE","TLE_LINE1":"1 46760U 20074X   22166.83349003  .00000630  00000-0  61193-4 0  9996","NORAD_CAT_ID":"46760","MEAN_ELEMENT_THEORY":"SGP4","MEAN_MOTION_DDOT":"0.0000000000000","CLASSIFICATION_TYPE":"U","OBJECT_TYPE":"PAYLOAD","OBJECT_NAME":"STARLINK-1896","SITE":"AFETR","GP_ID":"206237805","APOAPSIS":"548.205","CENTER_NAME":"EARTH","OBJECT_ID":"2020-074X","REF_FRAME":"TEME","SEMIMAJOR_AXIS":"6925.337","MEAN_MOTION":"15.06403926","PERIAPSIS":"546.198","MEAN_MOTION_DOT":"0.00000630","DECAY_DATE":null,"EPHEMERIS_TYPE":"0","MEAN_ANOMALY":"291.3804","REV_AT_EPOCH":"9105","TLE_LINE2":"2 46760  53.0569 334.7239 0001449  68.7339 291.3804 15.06403926 91056","ECCENTRICITY":"0.00014490","PERIOD":"95.592","ARG_OF_PERICENTER":"68.7339","TIME_SYSTEM":"UTC","COUNTRY_CODE":"US","EPOCH":"2022-06-15T20:00:13.538592","ELEMENT_SET_NO":"999","RA_OF_ASC_NODE":"334.7239","FILE":"3496999","INCLINATION":"53.0569","LAUNCH_DATE":"2020-10-24"},{"CLASSIFICATION_TYPE":"U","OBJECT_TYPE":"PAYLOAD","MEAN_MOTION_DDOT":"0.0000000000000","MEAN_ELEMENT_THEORY":"SGP4","GP_ID":"206206368","SITE":"AFETR","APOAPSIS":"442.582","OBJECT_NAME":"STARLINK-1902","NORAD_CAT_ID":"46763","TLE_LINE1":"1 46763U 20074AA  22166.48178039  .00010592  00000-0  25242-3 0  9991","BSTAR":"0.00025242000000","RCS_SIZE":"LARGE","ELEMENT_SET_NO":"999","EPOCH":"2022-06-15T11:33:45.825696","COUNTRY_CODE":"US","RA_OF_ASC_NODE":"298.5984","TIME_SYSTEM":"UTC","ECCENTRICITY":"0.00042040","TLE_LINE2":"2 46763  53.0536 298.5984 0004204  21.7826 338.3357 15.42167263 91538","PERIOD":"93.375","ARG_OF_PERICENTER":"21.7826","INCLINATION":"53.0536","FILE":"3496794","LAUNCH_DATE":"2020-10-24","CENTER_NAME":"EARTH","OBJECT_ID":"2020-074AA","EPHEMERIS_TYPE":"0","DECAY_DATE":null,"PERIAPSIS":"436.850","MEAN_MOTION":"15.42167263","MEAN_MOTION_DOT":"0.00010592","MEAN_ANOMALY":"338.3357","REV_AT_EPOCH":"9153","REF_FRAME":"TEME","SEMIMAJOR_AXIS":"6817.851"},{"BSTAR":"-0.00003071500000","RCS_SIZE":"LARGE","NORAD_CAT_ID":"46764","TLE_LINE1":"1 46764U 20074AB  22166.75977856 -.00000739  00000-0 -30715-4 0  9992","OBJECT_NAME":"STARLINK-1903","GP_ID":"206236803","SITE":"AFETR","APOAPSIS":"548.344","MEAN_MOTION_DDOT":"0.0000000000000","MEAN_ELEMENT_THEORY":"SGP4","OBJECT_TYPE":"PAYLOAD","CLASSIFICATION_TYPE":"U","REF_FRAME":"TEME","SEMIMAJOR_AXIS":"6925.351","DECAY_DATE":null,"EPHEMERIS_TYPE":"0","MEAN_MOTION_DOT":"-0.00000739","PERIAPSIS":"546.088","MEAN_MOTION":"15.06399262","REV_AT_EPOCH":"9104","MEAN_ANOMALY":"291.8275","CENTER_NAME":"EARTH","OBJECT_ID":"2020-074AB","INCLINATION":"53.0549","FILE":"3496999","LAUNCH_DATE":"2020-10-24","TIME_SYSTEM":"UTC","TLE_LINE2":"2 46764  53.0549 335.0556 0001629  68.2887 291.8275 15.06399262 91040","PERIOD":"95.592","ECCENTRICITY":"0.00016290","ARG_OF_PERICENTER":"68.2887","ELEMENT_SET_NO":"999","EPOCH":"2022-06-15T18:14:04.867584","COUNTRY_CODE":"US","RA_OF_ASC_NODE":"335.0556"},{"TLE_LINE1":"1 46765U 20074AC  22166.81506905 -.00001513  00000-0 -82683-4 0  9995","NORAD_CAT_ID":"46765","RCS_SIZE":"LARGE","BSTAR":"-0.00008268300000","OBJECT_TYPE":"PAYLOAD","CLASSIFICATION_TYPE":"U","MEAN_ELEMENT_THEORY":"SGP4","MEAN_MOTION_DDOT":"0.0000000000000","APOAPSIS":"548.258","SITE":"AFETR","GP_ID":"206237055","OBJECT_NAME":"STARLINK-1906","OBJECT_ID":"2020-074AC","CENTER_NAME":"EARTH","REV_AT_EPOCH":"9104","MEAN_ANOMALY":"286.8895","PERIAPSIS":"546.215","MEAN_MOTION":"15.06392633","MEAN_MOTION_DOT":"-0.00001513","EPHEMERIS_TYPE":"0","DECAY_DATE":null,"SEMIMAJOR_AXIS":"6925.371","REF_FRAME":"TEME","RA_OF_ASC_NODE":"334.8024","EPOCH":"2022-06-15T19:33:41.965920","COUNTRY_CODE":"US","ELEMENT_SET_NO":"999","TLE_LINE2":"2 46765  53.0546 334.8024 0001475  73.2255 286.8895 15.06392633 91046","ECCENTRICITY":"0.00014750","PERIOD":"95.593","ARG_OF_PERICENTER":"73.2255","TIME_SYSTEM":"UTC","LAUNCH_DATE":"2020-10-24","FILE":"3496999","INCLINATION":"53.0546"},{"MEAN_MOTION":"15.06397848","PERIAPSIS":"546.165","MEAN_MOTION_DOT":"-0.00001378","DECAY_DATE":null,"EPHEMERIS_TYPE":"0","MEAN_ANOMALY":"278.0830","REV_AT_EPOCH":"9100","REF_FRAME":"TEME","SEMIMAJOR_AXIS":"6925.355","CENTER_NAME":"EARTH","OBJECT_ID":"2020-074AD","FILE":"3496794","INCLINATION":"53.0557","LAUNCH_DATE":"2020-10-24","EPOCH":"2022-06-15T11:25:23.095200","COUNTRY_CODE":"US","ELEMENT_SET_NO":"999","RA_OF_ASC_NODE":"336.3129","PERIOD":"95.592","TLE_LINE2":"2 46766  53.0557 336.3129 0001524  82.0332 278.0830 15.06397848 91002","ARG_OF_PERICENTER":"82.0332","ECCENTRICITY":"0.00015240","TIME_SYSTEM":"UTC","TLE_LINE1":"1 46766U 20074AD  22166.47596175 -.00001378  00000-0 -73660-4 0  9990","NORAD_CAT_ID":"46766","BSTAR":"-0.00007366000000","RCS_SIZE":"LARGE","SITE":"AFETR","GP_ID":"206207607","APOAPSIS":"548.276","OBJECT_NAME":"STARLINK-1916","CLASSIFICATION_TYPE":"U","OBJECT_TYPE":"PAYLOAD","MEAN_ELEMENT_THEORY":"SGP4","MEAN_MOTION_DDOT":"0.0000000000000"},{"FILE":"3496999","INCLINATION":"53.0576","LAUNCH_DATE":"2020-10-24","EPOCH":"2022-06-15T20:05:33.380160","COUNTRY_CODE":"US","ELEMENT_SET_NO":"999","RA_OF_ASC_NODE":"334.7085","TLE_LINE2":"2 46767  53.0576 334.7085 0001502  66.8449 293.2698 15.06386983 91056","PERIOD":"95.593","ECCENTRICITY":"0.00015020","ARG_OF_PERICENTER":"66.8449","TIME_SYSTEM":"UTC","PERIAPSIS":"546.213","MEAN_MOTION":"15.06386983","MEAN_MOTION_DOT":"-0.00001263","DECAY_DATE":null,"EPHEMERIS_TYPE":"0","MEAN_ANOMALY":"293.2698","REV_AT_EPOCH":"9105","REF_FRAME":"TEME","SEMIMAJOR_AXIS":"6925.388","CENTER_NAME":"EARTH","OBJECT_ID":"2020-074AE","SITE":"AFETR","GP_ID":"206236054","APOAPSIS":"548.294","OBJECT_NAME":"STARLINK-1917","OBJECT_TYPE":"PAYLOAD","CLASSIFICATION_TYPE":"U","MEAN_ELEMENT_THEORY":"SGP4","MEAN_MOTION_DDOT":"0.0000000000000","TLE_LINE1":"1 46767U 20074AE  22166.83719190 -.00001263  00000-0 -65915-4 0  9992","NORAD_CAT_ID":"46767","BSTAR":"-0.00006591500000","RCS_SIZE":"LARGE"}];
